{
  "norad_id": 68200,
  "name": "2026-052C",
  "history": [
    {
      "epoch": "2026-03-28T22:33:11.408832Z",
      "apogee_km": 543.6385684396946,
      "perigee_km": 527.4343006438157,
      "latitude_deg": -5.609356438379149e-05,
      "longitude_deg": -0.6596911040173786,
      "height_km": 544.6921929377656,
      "semi_major_axis_km": 6913.673434541755,
      "eccentricity": 0.0011719,
      "inclination_deg": 97.5374,
      "raan_deg": 163.9908,
      "arg_perigee_deg": 221.4393,
      "mean_anomaly_deg": 138.5948,
      "mean_motion_rev_day": 15.10217398
    },
    {
      "epoch": "2026-03-29T04:54:49.982688Z",
      "apogee_km": 543.6357632923045,
      "perigee_km": 527.4163098085564,
      "latitude_deg": 8.41204275236805e-06,
      "longitude_deg": -96.0706491930373,
      "height_km": 544.7824325658074,
      "semi_major_axis_km": 6913.66303655043,
      "eccentricity": 0.001173,
      "inclination_deg": 97.5374,
      "raan_deg": 164.2518,
      "arg_perigee_deg": 220.4149,
      "mean_anomaly_deg": 139.621,
      "mean_motion_rev_day": 15.10220805
    },
    {
      "epoch": "2026-03-30T04:45:59.091840Z",
      "apogee_km": 543.6379670069264,
      "perigee_km": 527.3245933130602,
      "latitude_deg": -1.9246515451332182e-05,
      "longitude_deg": -93.8590883319742,
      "height_km": 545.1014386617435,
      "semi_major_axis_km": 6913.6182801599925,
      "eccentricity": 0.0011798,
      "inclination_deg": 97.5371,
      "raan_deg": 165.2309,
      "arg_perigee_deg": 216.7167,
      "mean_anomaly_deg": 143.3255,
      "mean_motion_rev_day": 15.1023547
    },
    {
      "epoch": "2026-03-30T06:21:23.675904Z",
      "apogee_km": 543.6493302383569,
      "perigee_km": 527.3114843984276,
      "latitude_deg": 1.5091436339549145e-05,
      "longitude_deg": -117.7116320164419,
      "height_km": 545.1321311046947,
      "semi_major_axis_km": 6913.617407318392,
      "eccentricity": 0.00118157,
      "inclination_deg": 97.537,
      "raan_deg": 165.2961,
      "arg_perigee_deg": 216.4606,
      "mean_anomaly_deg": 143.582,
      "mean_motion_rev_day": 15.10235756
    },
    {
      "epoch": "2026-03-30T14:18:26.545248Z",
      "apogee_km": 543.6639854523683,
      "perigee_km": 527.2707233513838,
      "latitude_deg": 8.913953833968742e-05,
      "longitude_deg": 123.02527539185778,
      "height_km": 545.2456557236574,
      "semi_major_axis_km": 6913.604354401876,
      "eccentricity": 0.00118558,
      "inclination_deg": 97.5365,
      "raan_deg": 165.6215,
      "arg_perigee_deg": 215.2148,
      "mean_anomaly_deg": 144.83,
      "mean_motion_rev_day": 15.10240033
    },
    {
      "epoch": "2026-03-30T22:15:29.342016Z",
      "apogee_km": 543.6559368652488,
      "perigee_km": 527.2541311238001,
      "latitude_deg": 1.4946382945717905e-05,
      "longitude_deg": 3.763305532924567,
      "height_km": 545.3289839517112,
      "semi_major_axis_km": 6913.592033994524,
      "eccentricity": 0.0011862,
      "inclination_deg": 97.5364,
      "raan_deg": 165.9477,
      "arg_perigee_deg": 214.0814,
      "mean_anomaly_deg": 145.9655,
      "mean_motion_rev_day": 15.1024407
    },
    {
      "epoch": "2026-03-31T20:31:12.820800Z",
      "apogee_km": 543.7073808081077,
      "perigee_km": 527.1424864151741,
      "latitude_deg": 1.8621891308564156e-05,
      "longitude_deg": 29.830373700291197,
      "height_km": 545.6209408886572,
      "semi_major_axis_km": 6913.561933611641,
      "eccentricity": 0.001198,
      "inclination_deg": 97.5364,
      "raan_deg": 166.8602,
      "arg_perigee_deg": 210.7956,
      "mean_anomaly_deg": 149.2572,
      "mean_motion_rev_day": 15.10253933
    },
    {
      "epoch": "2026-04-01T20:22:20.269344Z",
      "apogee_km": 543.7830832831269,
      "perigee_km": 527.0163740088155,
      "latitude_deg": -1.2700750196474542e-05,
      "longitude_deg": 32.048273803691494,
      "height_km": 545.9262629024265,
      "semi_major_axis_km": 6913.536728645971,
      "eccentricity": 0.0012126,
      "inclination_deg": 97.5362,
      "raan_deg": 167.8387,
      "arg_perigee_deg": 207.362,
      "mean_anomaly_deg": 152.6972,
      "mean_motion_rev_day": 15.10262192
    },
    {
      "epoch": "2026-04-02T20:13:27.043968Z",
      "apogee_km": 543.7778771222202,
      "perigee_km": 526.9324621017449,
      "latitude_deg": -6.227019626844667e-05,
      "longitude_deg": 34.26849151991944,
      "height_km": 546.1022029020277,
      "semi_major_axis_km": 6913.492169611983,
      "eccentricity": 0.0012183,
      "inclination_deg": 97.5358,
      "raan_deg": 168.8167,
      "arg_perigee_deg": 204.4688,
      "mean_anomaly_deg": 155.5964,
      "mean_motion_rev_day": 15.10276793
    },
    {
      "epoch": "2026-04-02T23:24:15.857856Z",
      "apogee_km": 543.7449334018429,
      "perigee_km": 526.9344000780638,
      "latitude_deg": -3.541794878043372e-05,
      "longitude_deg": -13.43521036457301,
      "height_km": 546.0993186060248,
      "semi_major_axis_km": 6913.476666739953,
      "eccentricity": 0.00121578,
      "inclination_deg": 97.5357,
      "raan_deg": 168.947,
      "arg_perigee_deg": 203.9944,
      "mean_anomaly_deg": 156.072,
      "mean_motion_rev_day": 15.10281873
    },
    {
      "epoch": "2026-04-03T20:04:32.892384Z",
      "apogee_km": 543.7531235169417,
      "perigee_km": 526.8428615252351,
      "latitude_deg": -5.863426416022426e-05,
      "longitude_deg": 36.4918712744055,
      "height_km": 546.2575425523656,
      "semi_major_axis_km": 6913.434992521088,
      "eccentricity": 0.001223,
      "inclination_deg": 97.5355,
      "raan_deg": 169.794,
      "arg_perigee_deg": 201.27,
      "mean_anomaly_deg": 158.8022,
      "mean_motion_rev_day": 15.10295529
    },
    {
      "epoch": "2026-04-04T19:55:37.711776Z",
      "apogee_km": 543.8205203572279,
      "perigee_km": 526.6767067127839,
      "latitude_deg": 3.397571691444455e-05,
      "longitude_deg": 38.719937814925196,
      "height_km": 546.4898204561966,
      "semi_major_axis_km": 6913.385613535005,
      "eccentricity": 0.0012399,
      "inclination_deg": 97.5349,
      "raan_deg": 170.7717,
      "arg_perigee_deg": 197.8051,
      "mean_anomaly_deg": 162.2746,
      "mean_motion_rev_day": 15.1031171
    },
    {
      "epoch": "2026-04-05T15:00:29.038176Z",
      "apogee_km": 543.8082707376789,
      "perigee_km": 526.6259586880542,
      "latitude_deg": 6.079926978188557e-05,
      "longitude_deg": 112.50544730116627,
      "height_km": 546.58961683008,
      "semi_major_axis_km": 6913.354114712866,
      "eccentricity": 0.00124269,
      "inclination_deg": 97.535,
      "raan_deg": 171.5547,
      "arg_perigee_deg": 195.1356,
      "mean_anomaly_deg": 164.9504,
      "mean_motion_rev_day": 15.10322032
    },
    {
      "epoch": "2026-04-05T21:22:06.031776Z",
      "apogee_km": 543.8052836925399,
      "perigee_km": 526.6035076318522,
      "latitude_deg": 3.618355783288355e-05,
      "longitude_deg": 17.10050281109145,
      "height_km": 546.6248733754264,
      "semi_major_axis_km": 6913.341395662195,
      "eccentricity": 0.0012441,
      "inclination_deg": 97.5348,
      "raan_deg": 171.8151,
      "arg_perigee_deg": 194.1124,
      "mean_anomaly_deg": 165.976,
      "mean_motion_rev_day": 15.103262
    },
    {
      "epoch": "2026-04-06T06:54:31.459968Z",
      "apogee_km": 543.7962656131776,
      "perigee_km": 526.5880215087745,
      "latitude_deg": -1.333575211957697e-05,
      "longitude_deg": -126.00615255644776,
      "height_km": 546.6651528192625,
      "semi_major_axis_km": 6913.329143560976,
      "eccentricity": 0.00124457,
      "inclination_deg": 97.5348,
      "raan_deg": 172.2062,
      "arg_perigee_deg": 192.6841,
      "mean_anomaly_deg": 167.4077,
      "mean_motion_rev_day": 15.10330215
    },
    {
      "epoch": "2026-04-07T21:04:12.148896Z",
      "apogee_km": 543.8583525247404,
      "perigee_km": 526.4341134643018,
      "latitude_deg": 8.047631040979742e-06,
      "longitude_deg": 21.57327408563122,
      "height_km": 546.8769167375714,
      "semi_major_axis_km": 6913.283232994521,
      "eccentricity": 0.0012602,
      "inclination_deg": 97.5351,
      "raan_deg": 173.7724,
      "arg_perigee_deg": 186.6635,
      "mean_anomaly_deg": 173.4429,
      "mean_motion_rev_day": 15.1034526
    },
    {
      "epoch": "2026-04-08T14:33:37.836288Z",
      "apogee_km": 543.8964726947252,
      "perigee_km": 526.3598694658522,
      "latitude_deg": -6.331762861668327e-05,
      "longitude_deg": 119.2151424162833,
      "height_km": 546.9515702837958,
      "semi_major_axis_km": 6913.265171080288,
      "eccentricity": 0.00126833,
      "inclination_deg": 97.5353,
      "raan_deg": 174.4896,
      "arg_perigee_deg": 184.0219,
      "mean_anomaly_deg": 176.091,
      "mean_motion_rev_day": 15.10351179
    },
    {
      "epoch": "2026-04-09T20:46:16.220928Z",
      "apogee_km": 543.9523925133553,
      "perigee_km": 526.2337837974137,
      "latitude_deg": -1.1425731089019791e-05,
      "longitude_deg": 26.053188039543144,
      "height_km": 547.0275040534985,
      "semi_major_axis_km": 6913.230088155385,
      "eccentricity": 0.0012815,
      "inclination_deg": 97.535,
      "raan_deg": 175.7283,
      "arg_perigee_deg": 179.5943,
      "mean_anomaly_deg": 180.5299,
      "mean_motion_rev_day": 15.10362676
    }
  ]
}